0 SL-8 DEB
1 21250U 91009BH  13283.48929719  .00000108  00000-0  11598-2 0  2487
2 21250 074.0595 290.8769 0139621 055.0406 098.4506 12.18488691  5213
0 SL-8 DEB
1 21250U 91009BH  13286.09787963  .00000139  00000-0  14608-2 0  2490
2 21250 074.0593 287.6150 0139653 051.3467 021.1496 12.18489336  5533
0 SL-8 DEB
1 21250U 91009BH  13288.40642815 -.00000079  00000-0 -62429-3 0  2505
2 21250 074.0595 284.7282 0139787 048.0337 067.7692 12.18491734  5816
0 SL-8 DEB
1 21250U 91009BH  13291.02001868 -.00000078  00000-0 -61160-3 0  2515
2 21250 074.0601 281.4599 0139958 044.3029 012.4861 12.18491752  6137
0 SL-8 DEB
1 21250U 91009BH  13293.07568685  .00000129  00000-0  13673-2 0  2528
2 21250 074.0602 278.8896 0139817 041.3992 029.8097 12.18489577  6380
0 SL-8 DEB
1 21250U 91009BH  13295.39467949  .00000194  00000-0  19901-2 0  2539
2 21250 074.0602 275.9901 0139906 038.0942 122.2349 12.18489612  6661
